[{"OBJECT_NAME":"DEMO8 (TENZING)","OBJECT_ID":"2021-059CA","EPOCH":"2026-03-09T12:02:09.080736","MEAN_MOTION":15.50975268,"ECCENTRICITY":0.00070099,"INCLINATION":97.7052,"RA_OF_ASC_NODE":254.6062,"ARG_OF_PERICENTER":356.8203,"MEAN_ANOMALY":3.3002,"EPHEMERIS_TYPE":0,"CLASSIFICATION_TYPE":"U","NORAD_CAT_ID":48951,"ELEMENT_SET_NO":999,"REV_AT_EPOCH":26183,"BSTAR":0.00038914706,"MEAN_MOTION_DOT":0.00022523,"MEAN_MOTION_DDOT":0},{"OBJECT_NAME":"SHERPA-LTC2","OBJECT_ID":"2022-107BG","EPOCH":"2026-03-09T17:14:31.494912","MEAN_MOTION":14.68527555,"ECCENTRICITY":0.0397806,"INCLINATION":53.2359,"RA_OF_ASC_NODE":281.0426,"ARG_OF_PERICENTER":308.3547,"MEAN_ANOMALY":48.2298,"EPHEMERIS_TYPE":0,"CLASSIFICATION_TYPE":"U","NORAD_CAT_ID":53754,"ELEMENT_SET_NO":999,"REV_AT_EPOCH":18792,"BSTAR":0.0002221958,"MEAN_MOTION_DOT":4.161e-5,"MEAN_MOTION_DDOT":0}]
